start=new Date('2023-06-28T00:00:00.000Z').valueOf();
sats=[{"CENTER_NAME":"EARTH","EPOCH":"2023-06-26T13:54:33.789600","MEAN_MOTION_DDOT":"0.0000000000000","OBJECT_ID":"2021-040L","SITE":"AFETR","EPHEMERIS_TYPE":"0","REV_AT_EPOCH":"11912","PERIOD":"95.594","ELEMENT_SET_NO":"999","DECAY_DATE":null,"RA_OF_ASC_NODE":"292.9319","CLASSIFICATION_TYPE":"U","PERIAPSIS":"546.662","INCLINATION":"53.0525","FILE":"3943621","REF_FRAME":"TEME","COUNTRY_CODE":"US","TIME_SYSTEM":"UTC","TLE_LINE1":"1 48438U 21040L   23177.57955775  .00016053  00000-0  10948-2 0  9993","RCS_SIZE":"LARGE","MEAN_ANOMALY":"242.3496","BSTAR":"0.00109480000000","OBJECT_TYPE":"PAYLOAD","MEAN_ELEMENT_THEORY":"SGP4","OBJECT_NAME":"STARLINK-2640","ARG_OF_PERICENTER":"117.7584","LAUNCH_DATE":"2021-05-09","MEAN_MOTION_DOT":"0.00016053","APOAPSIS":"547.912","SEMIMAJOR_AXIS":"6925.422","GP_ID":"234573323","NORAD_CAT_ID":"48438","TLE_LINE2":"2 48438  53.0525 292.9319 0000902 117.7584 242.3496 15.06376035119128","ECCENTRICITY":"0.00009020","MEAN_MOTION":"15.06376035"},{"EPOCH":"2023-06-26T17:00:20.200032","MEAN_MOTION_DDOT":"0.0000000000000","CENTER_NAME":"EARTH","EPHEMERIS_TYPE":"0","REV_AT_EPOCH":"11914","OBJECT_ID":"2021-040M","SITE":"AFETR","ELEMENT_SET_NO":"999","PERIOD":"95.594","RA_OF_ASC_NODE":"292.3533","DECAY_DATE":null,"PERIAPSIS":"546.627","INCLINATION":"53.0525","CLASSIFICATION_TYPE":"U","FILE":"3943876","REF_FRAME":"TEME","TIME_SYSTEM":"UTC","TLE_LINE1":"1 48439U 21040M   23177.70856713  .00025573  00000-0  17311-2 0  9999","COUNTRY_CODE":"US","BSTAR":"0.00173110000000","OBJECT_TYPE":"PAYLOAD","RCS_SIZE":"LARGE","MEAN_ANOMALY":"257.0321","ARG_OF_PERICENTER":"103.0780","OBJECT_NAME":"STARLINK-2583","MEAN_ELEMENT_THEORY":"SGP4","LAUNCH_DATE":"2021-05-09","MEAN_MOTION_DOT":"0.00025573","APOAPSIS":"548.016","TLE_LINE2":"2 48439  53.0525 292.3533 0001003 103.0780 257.0321 15.06364842119145","SEMIMAJOR_AXIS":"6925.456","GP_ID":"234578854","NORAD_CAT_ID":"48439","ECCENTRICITY":"0.00010030","MEAN_MOTION":"15.06364842"},{"DECAY_DATE":null,"RA_OF_ASC_NODE":"292.3700","CLASSIFICATION_TYPE":"U","INCLINATION":"53.0525","PERIAPSIS":"546.638","FILE":"3943442","REF_FRAME":"TEME","CENTER_NAME":"EARTH","EPOCH":"2023-06-26T16:55:01.664832","MEAN_MOTION_DDOT":"0.0000000000000","OBJECT_ID":"2021-040N","SITE":"AFETR","EPHEMERIS_TYPE":"0","REV_AT_EPOCH":"11831","PERIOD":"95.594","ELEMENT_SET_NO":"999","MEAN_MOTION_DOT":"0.00027164","APOAPSIS":"548.000","SEMIMAJOR_AXIS":"6925.454","NORAD_CAT_ID":"48440","GP_ID":"234568635","TLE_LINE2":"2 48440  53.0525 292.3700 0000983 103.1951 256.9148 15.06365636118315","ECCENTRICITY":"0.00009830","MEAN_MOTION":"15.06365636","COUNTRY_CODE":"US","TIME_SYSTEM":"UTC","TLE_LINE1":"1 48440U 21040N   23177.70488038  .00027164  00000-0  18372-2 0  9998","RCS_SIZE":"LARGE","MEAN_ANOMALY":"256.9148","BSTAR":"0.00183720000000","OBJECT_TYPE":"PAYLOAD","MEAN_ELEMENT_THEORY":"SGP4","OBJECT_NAME":"STARLINK-2682","ARG_OF_PERICENTER":"103.1951","LAUNCH_DATE":"2021-05-09"},{"CENTER_NAME":"EARTH","MEAN_MOTION_DDOT":"0.0000000000000","EPOCH":"2023-06-27T08:45:07.328160","SITE":"AFETR","OBJECT_ID":"2021-040P","REV_AT_EPOCH":"11924","EPHEMERIS_TYPE":"0","PERIOD":"95.592","ELEMENT_SET_NO":"999","DECAY_DATE":null,"RA_OF_ASC_NODE":"289.4080","CLASSIFICATION_TYPE":"U","INCLINATION":"53.0528","PERIAPSIS":"546.593","REF_FRAME":"TEME","FILE":"3944187","COUNTRY_CODE":"US","TLE_LINE1":"1 48441U 21040P   23178.36466815  .00024348  00000-0  16478-2 0  9997","TIME_SYSTEM":"UTC","MEAN_ANOMALY":"265.9910","RCS_SIZE":"LARGE","OBJECT_TYPE":"PAYLOAD","BSTAR":"0.00164780000000","MEAN_ELEMENT_THEORY":"SGP4","OBJECT_NAME":"STARLINK-2702","ARG_OF_PERICENTER":"94.1182","LAUNCH_DATE":"2021-05-09","MEAN_MOTION_DOT":"0.00024348","APOAPSIS":"547.832","GP_ID":"234586000","NORAD_CAT_ID":"48441","SEMIMAJOR_AXIS":"6925.347","TLE_LINE2":"2 48441  53.0528 289.4080 0000894  94.1182 265.9910 15.06400362119249","MEAN_MOTION":"15.06400362","ECCENTRICITY":"0.00008940"},{"CLASSIFICATION_TYPE":"U","INCLINATION":"53.0541","PERIAPSIS":"546.615","DECAY_DATE":null,"RA_OF_ASC_NODE":"289.7157","REF_FRAME":"TEME","FILE":"3944187","SITE":"AFETR","OBJECT_ID":"2021-040Q","REV_AT_EPOCH":"11923","EPHEMERIS_TYPE":"0","CENTER_NAME":"EARTH","MEAN_MOTION_DDOT":"0.0000000000000","EPOCH":"2023-06-27T07:04:16.199616","ELEMENT_SET_NO":"999","PERIOD":"95.593","APOAPSIS":"547.887","MEAN_MOTION_DOT":"0.00023578","MEAN_MOTION":"15.06387837","ECCENTRICITY":"0.00009180","GP_ID":"234586014","NORAD_CAT_ID":"48442","SEMIMAJOR_AXIS":"6925.386","TLE_LINE2":"2 48442  53.0541 289.7157 0000918  99.7278 260.3815 15.06387837119230","RCS_SIZE":"LARGE","MEAN_ANOMALY":"260.3815","OBJECT_TYPE":"PAYLOAD","BSTAR":"0.00159700000000","COUNTRY_CODE":"US","TLE_LINE1":"1 48442U 21040Q   23178.29463194  .00023578  00000-0  15970-2 0  9997","TIME_SYSTEM":"UTC","LAUNCH_DATE":"2021-05-09","MEAN_ELEMENT_THEORY":"SGP4","ARG_OF_PERICENTER":"99.7278","OBJECT_NAME":"STARLINK-2644"},{"GP_ID":"234586011","NORAD_CAT_ID":"48443","SEMIMAJOR_AXIS":"6925.436","TLE_LINE2":"2 48443  53.0541 292.4175 0001230 112.5089 247.6030 15.06371583119142","MEAN_MOTION":"15.06371583","ECCENTRICITY":"0.00012300","MEAN_MOTION_DOT":"0.00024513","APOAPSIS":"548.152","MEAN_ELEMENT_THEORY":"SGP4","ARG_OF_PERICENTER":"112.5089","OBJECT_NAME":"STARLINK-2663","LAUNCH_DATE":"2021-05-09","COUNTRY_CODE":"US","TLE_LINE1":"1 48443U 21040R   23177.69382255  .00024513  00000-0  16601-2 0  9991","TIME_SYSTEM":"UTC","RCS_SIZE":"LARGE","MEAN_ANOMALY":"247.6030","OBJECT_TYPE":"PAYLOAD","BSTAR":"0.00166010000000","REF_FRAME":"TEME","FILE":"3944187","DECAY_DATE":null,"RA_OF_ASC_NODE":"292.4175","CLASSIFICATION_TYPE":"U","PERIAPSIS":"546.449","INCLINATION":"53.0541","ELEMENT_SET_NO":"999","PERIOD":"95.594","CENTER_NAME":"EARTH","MEAN_MOTION_DDOT":"0.0000000000000","EPOCH":"2023-06-26T16:39:06.268320","SITE":"AFETR","OBJECT_ID":"2021-040R","REV_AT_EPOCH":"11914","EPHEMERIS_TYPE":"0"},{"PERIOD":"95.594","ELEMENT_SET_NO":"999","CENTER_NAME":"EARTH","EPOCH":"2023-06-26T16:33:47.517120","MEAN_MOTION_DDOT":"0.0000000000000","OBJECT_ID":"2021-040S","SITE":"AFETR","EPHEMERIS_TYPE":"0","REV_AT_EPOCH":"11914","FILE":"3943621","REF_FRAME":"TEME","DECAY_DATE":null,"RA_OF_ASC_NODE":"292.4338","CLASSIFICATION_TYPE":"U","INCLINATION":"53.0545","PERIAPSIS":"546.701","MEAN_ELEMENT_THEORY":"SGP4","ARG_OF_PERICENTER":"91.8412","OBJECT_NAME":"STARLINK-2645","LAUNCH_DATE":"2021-05-09","COUNTRY_CODE":"US","TIME_SYSTEM":"UTC","TLE_LINE1":"1 48444U 21040S   23177.69013330  .00022464  00000-0  15235-2 0  9992","RCS_SIZE":"LARGE","MEAN_ANOMALY":"268.2678","BSTAR":"0.00152350000000","OBJECT_TYPE":"PAYLOAD","SEMIMAJOR_AXIS":"6925.448","NORAD_CAT_ID":"48444","GP_ID":"234572831","TLE_LINE2":"2 48444  53.0545 292.4338 0000883  91.8412 268.2678 15.06367612119145","ECCENTRICITY":"0.00008830","MEAN_MOTION":"15.06367612","MEAN_MOTION_DOT":"0.00022464","APOAPSIS":"547.924"},{"PERIOD":"95.594","ELEMENT_SET_NO":"999","EPHEMERIS_TYPE":"0","REV_AT_EPOCH":"11914","OBJECT_ID":"2021-040T","SITE":"AFETR","EPOCH":"2023-06-26T16:28:29.323200","MEAN_MOTION_DDOT":"0.0000000000000","CENTER_NAME":"EARTH","FILE":"3943621","REF_FRAME":"TEME","PERIAPSIS":"546.603","INCLINATION":"53.0535","CLASSIFICATION_TYPE":"U","RA_OF_ASC_NODE":"292.4525","DECAY_DATE":null,"LAUNCH_DATE":"2021-05-09","OBJECT_NAME":"STARLINK-2634","ARG_OF_PERICENTER":"108.3214","MEAN_ELEMENT_THEORY":"SGP4","BSTAR":"0.00179520000000","OBJECT_TYPE":"PAYLOAD","RCS_SIZE":"LARGE","MEAN_ANOMALY":"251.7886","TIME_SYSTEM":"UTC","TLE_LINE1":"1 48445U 21040T   23177.68645050  .00026536  00000-0  17952-2 0  9994","COUNTRY_CODE":"US","ECCENTRICITY":"0.00010210","MEAN_MOTION":"15.06368575","TLE_LINE2":"2 48445  53.0535 292.4525 0001021 108.3214 251.7886 15.06368575119149","SEMIMAJOR_AXIS":"6925.445","GP_ID":"234573326","NORAD_CAT_ID":"48445","APOAPSIS":"548.017","MEAN_MOTION_DOT":"0.00026536"},{"COUNTRY_CODE":"US","TLE_LINE1":"1 48446U 21040U   23178.67796508  .00025088  00000-0  16963-2 0  9992","TIME_SYSTEM":"UTC","MEAN_ANOMALY":"261.4685","RCS_SIZE":"LARGE","OBJECT_TYPE":"PAYLOAD","BSTAR":"0.00169630000000","MEAN_ELEMENT_THEORY":"SGP4","OBJECT_NAME":"STARLINK-2247","ARG_OF_PERICENTER":"98.6405","LAUNCH_DATE":"2021-05-09","MEAN_MOTION_DOT":"0.00025088","APOAPSIS":"547.776","GP_ID":"234595091","NORAD_CAT_ID":"48446","SEMIMAJOR_AXIS":"6925.290","TLE_LINE2":"2 48446  53.0543 287.9983 0000896  98.6405 261.4685 15.06418982119297","MEAN_MOTION":"15.06418982","ECCENTRICITY":"0.00008960","CENTER_NAME":"EARTH","MEAN_MOTION_DDOT":"0.0000000000000","EPOCH":"2023-06-27T16:16:16.182912","SITE":"AFETR","OBJECT_ID":"2021-040U","REV_AT_EPOCH":"11929","EPHEMERIS_TYPE":"0","PERIOD":"95.591","ELEMENT_SET_NO":"999","DECAY_DATE":null,"RA_OF_ASC_NODE":"287.9983","CLASSIFICATION_TYPE":"U","INCLINATION":"53.0543","PERIAPSIS":"546.535","REF_FRAME":"TEME","FILE":"3944511"},{"FILE":"3944486","REF_FRAME":"TEME","CLASSIFICATION_TYPE":"U","INCLINATION":"53.0552","PERIAPSIS":"546.563","DECAY_DATE":null,"RA_OF_ASC_NODE":"288.0146","PERIOD":"95.590","ELEMENT_SET_NO":"999","OBJECT_ID":"2021-040V","SITE":"AFETR","EPHEMERIS_TYPE":"0","REV_AT_EPOCH":"11856","CENTER_NAME":"EARTH","EPOCH":"2023-06-27T16:10:58.041696","MEAN_MOTION_DDOT":"0.0000000000000","ECCENTRICITY":"0.00008180","MEAN_MOTION":"15.06427451","SEMIMAJOR_AXIS":"6925.264","GP_ID":"234594227","NORAD_CAT_ID":"48447","TLE_LINE2":"2 48447  53.0552 288.0146 0000818  79.8653 280.2428 15.06427451118565","APOAPSIS":"547.696","MEAN_MOTION_DOT":"0.00033320","LAUNCH_DATE":"2021-05-09","MEAN_ELEMENT_THEORY":"SGP4","ARG_OF_PERICENTER":"79.8653","OBJECT_NAME":"STARLINK-2269","MEAN_ANOMALY":"280.2428","RCS_SIZE":"LARGE","BSTAR":"0.00224360000000","OBJECT_TYPE":"PAYLOAD","COUNTRY_CODE":"US","TIME_SYSTEM":"UTC","TLE_LINE1":"1 48447U 21040V   23178.67428289  .00033320  00000-0  22436-2 0  9991"}];
